{"fetched_at":"2026-06-05T21:24:50Z","count":300,"tles":[{"name":"GPS BIII-4","line1":"1 46826U 20078A   26155.87644207  .00000039  00000+0  00000+0 0  9990","line2":"2 46826  53.9814 211.2781 0072999 206.8575 206.2075  2.00565007 41269","category":"GPS"},{"name":"ENVISAT","line1":"1 27386U 02009A   26155.73426809  .00000116  00000+0  51326-4 0  9993","line2":"2 27386  98.3829 107.3308 0001339  91.9128 331.7853 14.39061785271694","category":"Other"},{"name":"GOES 19","line1":"1 60133U 24119A   26155.90664480 -.00000236  00000+0  00000+0 0  9996","line2":"2 60133   0.0453 133.2777 0000662 359.8973  11.3778  1.00271442  6841","category":"Weather"},{"name":"CSS (WENTIAN)","line1":"1 53239U 22085A   26155.88163623  .00023646  00000+0  28405-3 0  9997","line2":"2 53239  41.4694  36.8620 0009573 343.5452  16.5074 15.60264942288232","category":"Other"},{"name":"NAVSTAR 82 (USA 343)","line1":"1 55268U 23009A   26154.74398397  .00000065  00000+0  00000+0 0  9997","line2":"2 55268  55.1213 149.0473 0006173 316.5044 223.0998  2.00572547 24970","category":"GPS"},{"name":"COSMOS 2486","line1":"1 39177U 13028A   26156.19486538  .00000294  00000+0  76331-4 0  9993","line2":"2 39177  98.0138 124.0603 0012240  56.5601 303.6766 14.56189518689637","category":"Other"},{"name":"NAVSTAR 58 (USA 190)","line1":"1 29486U 06042A   26154.27857834  .00000062  00000+0  00000+0 0  9999","line2":"2 29486  54.7088 151.8912 0106302  54.0916 122.8728  2.00570746144119","category":"GPS"},{"name":"YAOGAN-30 01","line1":"1 41473U 16029A   26155.95583192  .00000372  00000+0  61004-4 0  9994","line2":"2 41473  97.9013 206.1174 0014082 273.9184  86.0416 14.76253284541861","category":"Other"},{"name":"QPS-SAR-10 (WADATSUMI-I)","line1":"1 64055U 25104A   26155.95080331  .00005731  00000+0  44696-3 0  9997","line2":"2 64055  42.0052 346.4651 0014002 260.5464  99.3779 15.01664490 57594","category":"Other"},{"name":"QPS-SAR-5 (TSUKUYOMI-I)","line1":"1 58578U 23196A   26155.83774068  .00013716  00000+0  58709-3 0  9995","line2":"2 58578  42.0102  86.2146 0026218 202.7681 157.1992 15.22301344136364","category":"Other"},{"name":"QPS-SAR-15 (SUKUNAMI-I)","line1":"1 67228U 25307A   26156.11195551  .00005694  00000+0  47752-3 0  9991","line2":"2 67228  42.0071 294.2054 0011328 276.0509  83.9025 14.98898210 24879","category":"Other"},{"name":"QPS-SAR-8 (AMATERU-IV)","line1":"1 60542U 24149CC  26155.68646985  .00006597  00000+0  48150-3 0  9995","line2":"2 60542  97.6670 234.9422 0004472 136.4749 223.6831 15.04010002 98398","category":"Other"},{"name":"QPS-SAR-12 (KUSHINADA-I)","line1":"1 65116U 25169A   26153.92979921  .00005141  00000+0  41306-3 0  9994","line2":"2 65116  42.0111  94.4906 0005943 128.1561 231.9801 15.00715576 45276","category":"Other"},{"name":"QPS-SAR-11 (YAMATSUMI-I)","line1":"1 64340U 25125A   26154.75461737  .00005383  00000+0  42298-3 0  9996","line2":"2 64340  42.0082 265.8338 0009155  33.8564 326.2845 15.01497019 53600","category":"Other"},{"name":"QPS-SAR-14 (YACHIHOKO-I)","line1":"1 66316U 25252A   26152.21025309  .00004723  00000+0  39226-3 0  9996","line2":"2 66316  42.0032 219.6495 0005711 166.0740 194.0244 14.99557077 31113","category":"Other"},{"name":"GPS BIII-2","line1":"1 44506U 19056A   26153.44735856 -.00000081  00000+0  00000+0 0  9997","line2":"2 44506  55.6403 331.7284 0061230 197.3681 346.8768  2.00569922 49773","category":"GPS"},{"name":"IXPE","line1":"1 49954U 21121A   26155.91672454  .00013613  00000+0  75383-3 0  9997","line2":"2 49954   0.2302  49.8448 0006941 253.4191 125.3462 15.10136254  5671","category":"Other"},{"name":"QPS-SAR-9 (SUSANOO-I)","line1":"1 63205U 25050A   26155.95824661  .00005496  00000+0  41484-3 0  9995","line2":"2 63205  42.0175 169.8080 0002768  64.0853 296.0259 15.03023095 67125","category":"Other"},{"name":"STARLINK-1953","line1":"1 47554U 21009G   23362.49484508  .00005532  00000+0  39011-3 0  9996","line2":"2 47554  53.0555  32.8027 0001674  98.0356 262.0823 15.06386997160353","category":"Starlink"},{"name":"GPS BIIF-12","line1":"1 41328U 16007A   26154.40701902 -.00000007  00000+0  00000+0 0  9999","line2":"2 41328  55.5160  90.0059 0096298 247.3819 111.5800  2.00552512 75564","category":"GPS"},{"name":"QPS-SAR-2 (IZANAMI)","line1":"1 47485U 21006CA  23362.43273933  .00083822  00000+0  14678-2 0  9997","line2":"2 47485  97.3588  61.9172 0005005 102.7298 257.4513 15.50296774162568","category":"Other"},{"name":"YAOGAN-7","line1":"1 36110U 09069A   26155.69973087  .00000630  00000+0  94170-4 0  9996","line2":"2 36110  98.0085  41.6431 0026007  80.1150 280.2994 14.77996983887787","category":"Other"},{"name":"QPS-SAR-7 (TSUKUYOMI-II)","line1":"1 59447U 24066F   26155.91951583  .00008600  00000+0  55409-3 0  9996","line2":"2 59447  45.6052 309.7126 0002803 256.1441 103.9132 15.08769945118370","category":"Other"},{"name":"TELEOS-1","line1":"1 41169U 15077D   25177.62803816  .04978187 -27512-4  80740-3 0  9995","line2":"2 41169  14.9820 136.7861 0000764 246.8638 291.1774 16.32314160529153","category":"Other"},{"name":"GAOFEN-11 01","line1":"1 43585U 18063A   26155.94748920  .00015919  00000+0  23934-3 0  9993","line2":"2 43585  97.1297 222.8634 0004521  39.8312 320.3274 15.54923699438444","category":"Other"},{"name":"QPS-SAR-1 (IZANAGI)","line1":"1 44856U 19089E   23362.39285563  .00029937  00000+0  13412-2 0  9993","line2":"2 44856  36.9619 351.5980 0006688 178.8945 181.1819 15.20403969222390","category":"Other"},{"name":"USA 115 (MILSTAR-1 2)","line1":"1 23712U 95060A   26155.60894301 -.00000161  00000+0  00000+0 0  9992","line2":"2 23712  14.0684   3.8418 0001665 119.5400 250.4567  1.00366926 32762","category":"Military"},{"name":"COSMOS 2502","line1":"1 40358U 14086A   26155.97917179 -.00000098  00000+0 -16253-4 0  9997","line2":"2 40358  67.1541  36.9799 0008351 261.1606  98.8534 13.97820655582242","category":"Other"},{"name":"CENTAURI-4 (TYVAK-0211)","line1":"1 48898U 21059V   24148.95098348  .03329189  26060-5  83585-3 0  9995","line2":"2 48898  97.5976 312.0936 0012462 266.3397  93.6471 16.28826922163104","category":"Other"},{"name":"FLOCK 4S-8","line1":"1 47474U 21006BP  23362.14189482  .00104531  00000+0  13906-2 0  9992","line2":"2 47474  97.3413  63.6495 0004378 111.6902 248.4820 15.57809883162708","category":"Other"},{"name":"SES-12","line1":"1 43488U 18049A   26155.90025259 -.00000258  00000+0  00000+0 0  9994","line2":"2 43488   0.0309  48.8755 0000820 262.7686   0.7958  1.00272363 29290","category":"Other"},{"name":"STARLINK-5753","line1":"1 55581U 23020N   26152.32952101  .00000174  00000+0  15845-4 0  9998","line2":"2 55581  43.0011 259.7339 0001132 262.5847  97.4876 15.27574950181628","category":"Starlink"},{"name":"STARLINK-5757","line1":"1 55580U 23020M   26152.21952518  .00002105  00000+0  86011-4 0  9996","line2":"2 55580  43.0013 227.8153 0001287 248.6459 111.4255 15.27576124181986","category":"Starlink"},{"name":"CHECKMATE 5","line1":"1 56163U 23050B   26155.26392007  .00000120  00000+0  96354-4 0  9992","line2":"2 56163  81.0011  83.9571 0006675   4.6102 355.5115 13.84982111160374","category":"Other"},{"name":"GSAT0208 (GALILEO 11)","line1":"1 41175U 15079B   26154.18097635  .00000008  00000+0  00000+0 0  9993","line2":"2 41175  55.8180 101.6428 0004856 341.4145  18.5225  1.70473818 64950","category":"GPS"},{"name":"INSAT-3DS","line1":"1 58990U 24033A   26155.93783233 -.00000143  00000+0  00000+0 0  9997","line2":"2 58990   0.0079 167.7888 0001551 260.7126 244.5593  1.00270638 46942","category":"Other"},{"name":"METEOR-M 2","line1":"1 40069U 14037A   26155.89772140  .00000335  00000+0  17242-3 0  9990","line2":"2 40069  98.5111 132.0718 0007057  73.7075 286.4879 14.21458695617571","category":"Weather"},{"name":"SENTINEL-3A","line1":"1 41335U 16011A   26155.94383845  .00000137  00000+0  74642-4 0  9995","line2":"2 41335  98.6251 223.5028 0001311 105.6839 254.4486 14.26736575536316","category":"Other"},{"name":"QPS-SAR-6 (AMATERU-III)","line1":"1 56951U 23084V   24322.02473709  .24235158  25893-5  52158-3 0  9994","line2":"2 56951  97.5138  91.3061 0010762 291.6079 162.9865 16.46029303 80033","category":"Other"},{"name":"WFOV (USA 332)","line1":"1 52940U 22073A   26155.70808747 -.00000351  00000+0  00000+0 0  9992","line2":"2 52940   3.6786  78.6864 0001848 247.4262 301.1910  1.00269264 14245","category":"Military"},{"name":"AEHF-5 (USA 292)","line1":"1 44481U 19051A   26155.90025259 -.00000246  00000+0  00000+0 0  9999","line2":"2 44481   1.4649 335.2168 0067138   1.3106 333.9692  1.00269337 25138","category":"Military"},{"name":"WORLDVIEW-1 (WV-1)","line1":"1 32060U 07041A   26155.22762445  .00007029  00000+0  29203-3 0  9990","line2":"2 32060  97.3865 275.1602 0003323  55.2782 304.8768 15.24115578 40902","category":"Other"},{"name":"AEHF-1 (USA 214)","line1":"1 36868U 10039A   26155.92743910  .00000158  00000+0  00000+0 0  9990","line2":"2 36868   8.1884  68.2056 0004266   2.9991 185.9893  1.00269467 53531","category":"Military"},{"name":"TANAGER-1","line1":"1 60507U 24149AR  26155.72349205  .00006373  00000+0  13758-3 0  9994","line2":"2 60507  97.2826 249.9656 0003787 352.9393   7.1802 15.44886756101110","category":"Other"},{"name":"FLOCK 4Q-13","line1":"1 58328U 23174CA  26155.73751660  .00025240  00000+0  43368-3 0  9996","line2":"2 58328  97.4000 246.1948 0006448 179.0615 181.0650 15.51107974143743","category":"Other"},{"name":"PRISMA","line1":"1 44072U 19015A   26155.93392598  .00000521  00000+0  69496-4 0  9995","line2":"2 44072  97.8646 230.8884 0001469  83.9913 276.1468 14.83672456390232","category":"Other"},{"name":"SWIFT","line1":"1 28485U 04047A   26151.76835454  .00063707  00000+0  56852-3 0  9990","line2":"2 28485  20.5544 311.3972 0003289  74.7681 285.3128 15.66645040184289","category":"Other"},{"name":"INMARSAT 6-F1","line1":"1 50319U 21128A   26155.93817899 -.00000160  00000+0  00000+0 0  9991","line2":"2 50319   0.0157 308.4291 0000318 190.2339 176.2163  1.00271628 16133","category":"Other"}]}